NORAD_CAT_ID,OBJECT_NAME,OBJECT_TYPE,EPOCH,MEAN_MOTION,ECCENTRICITY,INCLINATION,RA_OF_ASC_NODE,ARG_OF_PERICENTER,MEAN_ANOMALY,BSTAR,MEAN_MOTION_DOT,MEAN_MOTION_DDOT,TLE_LINE0,TLE_LINE1,TLE_LINE2,SEMIMAJOR_AXIS,PERIOD,APOGEE,PERIGEE,DECAYED
55643.0,STARLINK-5483,PAYLOAD,2023-07-04 03:05:48,14.98328012,0.0002785,69.9987,134.2378,271.1501,88.9339,-1.5683e-05,-2.8e-06,0.0,0 STARLINK-5483,1 55643U 23021R   23185.12903737 -.00000280  00000-0 -15683-4 0  9991,2 55643  69.9987 134.2378 0002785 271.1501  88.9339 14.98328012 21764,6950.199,96.107,574.0,570.128,0.0
55643.0,STARLINK-5483,PAYLOAD,2023-07-05 06:20:05,14.98334685,0.0002784,69.9987,131.3757,270.4717,89.6123,2.9232e-05,2.56e-06,0.0,0 STARLINK-5483,1 55643U 23021R   23186.26395177  .00000256  00000-0  29232-4 0  9996,2 55643  69.9987 131.3757 0002784 270.4717  89.6123 14.98334685 21934,6950.178,96.107,573.978,570.108,0.0
55643.0,STARLINK-5483,PAYLOAD,2023-07-06 03:09:50,14.98328729,0.0002666,69.9991,129.1879,268.5668,91.5185,2.3541e-05,1.88e-06,0.0,0 STARLINK-5483,1 55643U 23021R   23187.13183547  .00000188  00000-0  23541-4 0  9990,2 55643  69.9991 129.1879 0002666 268.5668  91.5185 14.98328729 22068,6950.197,96.107,573.915,570.209,0.0
55643.0,STARLINK-5483,PAYLOAD,2023-07-07 06:24:07,14.98333307,0.0002602,69.9993,126.3266,268.1904,91.8957,1.7325e-05,1.14e-06,0.0,0 STARLINK-5483,1 55643U 23021R   23188.26675185  .00000114  00000-0  17325-4 0  9991,2 55643  69.9993 126.3266 0002602 268.1904  91.8957 14.98333307 22235,6950.183,96.107,573.856,570.239,0.0
55643.0,STARLINK-5483,PAYLOAD,2023-07-08 12:50:41,14.98325829,0.0002529,69.9996,123.1286,270.1481,89.9388,-3.1709e-05,-4.71e-06,0.0,0 STARLINK-5483,1 55643U 23021R   23189.53519739 -.00000471  00000-0 -31709-4 0  9994,2 55643  69.9996 123.1286 0002529 270.1481  89.9388 14.98325829 22423,6950.206,96.107,573.828,570.313,0.0
55643.0,STARLINK-5483,PAYLOAD,2023-07-09 12:52:41,14.98329311,0.0002732,69.9993,120.6036,270.376,89.7086,-1.7021e-05,-2.96e-06,0.0,0 STARLINK-5483,1 55643U 23021R   23190.53659559 -.00000296  00000-0 -17021-4 0  9997,2 55643  69.9993 120.6036 0002732 270.3760  89.7086 14.98329311 22572,6950.195,96.107,573.959,570.161,0.0
55643.0,STARLINK-5483,PAYLOAD,2023-07-10 12:54:42,14.98329725,0.0002819,69.9994,118.0789,270.468,89.6156,2.9257e-05,2.56e-06,0.0,0 STARLINK-5483,1 55643U 23021R   23191.53799303  .00000256  00000-0  29257-4 0  9998,2 55643  69.9994 118.0789 0002819 270.4680  89.6156 14.98329725 22720,6950.194,96.107,574.018,570.099,0.0
55643.0,STARLINK-5483,PAYLOAD,2023-07-11 04:56:02,14.98333502,0.000281,69.9994,116.395,268.5369,91.5469,8.6833e-05,9.43e-06,0.0,0 STARLINK-5483,1 55643U 23021R   23192.20558888  .00000943  00000-0  86833-4 0  9990,2 55643  69.9994 116.3950 0002810 268.5369  91.5469 14.98333502 22822,6950.182,96.107,574.0,570.094,0.0
55643.0,STARLINK-5483,PAYLOAD,2023-07-12 19:23:16,14.98331324,0.0002723,69.9996,112.3558,267.9146,92.1701,-3.0723e-05,-4.6e-06,0.0,0 STARLINK-5483,1 55643U 23021R   23193.80783137 -.00000460  00000-0 -30723-4 0  9997,2 55643  69.9996 112.3558 0002723 267.9146  92.1701 14.98331324 23066,6950.189,96.107,573.946,570.161,0.0
55643.0,STARLINK-5483,PAYLOAD,2023-07-13 21:01:25,14.98325344,0.0002481,70.0006,109.6641,262.9872,97.1005,-4.349e-05,-6.12e-06,0.0,0 STARLINK-5483,1 55643U 23021R   23194.87599520 -.00000612  00000-0 -43490-4 0  9990,2 55643  70.0006 109.6641 0002481 262.9872  97.1005 14.98325344 23220,6950.207,96.107,573.797,570.348,0.0
55643.0,STARLINK-5483,PAYLOAD,2023-07-15 01:51:50,14.98337886,0.0002628,70.0,106.633,268.5481,91.5377,8.4808e-05,9.19e-06,0.0,0 STARLINK-5483,1 55643U 23021R   23196.07766341  .00000919  00000-0  84808-4 0  9997,2 55643  70.0000 106.6330 0002628 268.5481  91.5377 14.98337886 23401,6950.169,96.106,573.86,570.207,0.0
55643.0,STARLINK-5483,PAYLOAD,2023-07-16 03:30:00,14.98322358,0.000257,69.9998,103.9397,267.5556,92.5308,-9.5107e-07,-1.04e-06,0.0,0 STARLINK-5483,1 55643U 23021R   23197.14583630 -.00000104  00000-0 -95107-6 0  9998,2 55643  69.9998 103.9397 0002570 267.5556  92.5308 14.98322358 23565,6950.217,96.107,573.868,570.295,0.0
55643.0,STARLINK-5483,PAYLOAD,2023-07-17 00:19:44,14.98332689,0.0002882,69.999,101.7509,267.3224,92.7605,-4.7309e-05,-6.57e-06,0.0,0 STARLINK-5483,1 55643U 23021R   23198.01371070 -.00000657  00000-0 -47309-4 0  9990,2 55643  69.9990 101.7509 0002882 267.3224  92.7605 14.98332689 23698,6950.185,96.107,574.053,570.047,0.0
55643.0,STARLINK-5483,PAYLOAD,2023-07-18 00:21:44,14.9833255,0.0002821,69.9991,99.2258,264.8245,95.2592,0.00015263,1.729e-05,0.0,0 STARLINK-5483,1 55643U 23021R   23199.01510308  .00001729  00000-0  15263-3 0  9992,2 55643  69.9991  99.2258 0002821 264.8245  95.2592 14.98332550 23846,6950.185,96.107,574.011,570.089,0.0
55643.0,STARLINK-5483,PAYLOAD,2023-07-19 01:59:54,14.98327158,0.0002749,69.9991,96.5324,266.6279,93.4565,-2.0885e-05,-3.42e-06,0.0,0 STARLINK-5483,1 55643U 23021R   23200.08327041 -.00000342  00000-0 -20885-4 0  9991,2 55643  69.9991  96.5324 0002749 266.6279  93.4565 14.98327158 24003,6950.202,96.107,573.977,570.156,0.0
55643.0,STARLINK-5483,PAYLOAD,2023-07-20 16:27:07,14.98327102,0.0002683,69.9998,92.4938,264.48,95.6053,3.3944e-05,3.12e-06,0.0,0 STARLINK-5483,1 55643U 23021R   23201.68550881  .00000312  00000-0  33944-4 0  9993,2 55643  69.9998  92.4938 0002683 264.4800  95.6053 14.98327102 24240,6950.202,96.107,573.932,570.202,0.0
55643.0,STARLINK-5483,PAYLOAD,2023-07-24 02:09:59,14.98328244,0.0002819,69.9995,83.9078,266.5563,93.5273,-4.7901e-05,-6.64e-06,0.0,0 STARLINK-5483,1 55643U 23021R   23205.09027031 -.00000664  00000-0 -47901-4 0  9998,2 55643  69.9995  83.9078 0002819 266.5563  93.5273 14.98328244 25056,6950.198,96.107,574.023,570.104,0.0
55643.0,STARLINK-5483,PAYLOAD,2023-07-26 02:14:00,14.98331337,0.0003255,69.9983,78.8575,269.4784,90.6002,2.3549e-05,1.88e-06,0.0,0 STARLINK-5483,1 55643U 23021R   23207.09306450  .00000188  00000-0  23549-4 0  9996,2 55643  69.9983  78.8575 0003255 269.4784  90.6002 14.98331337 25358,6950.189,96.107,574.316,569.791,0.0
55643.0,STARLINK-5483,PAYLOAD,2023-07-26 15:03:05,14.98328866,0.0002979,69.9991,77.5113,265.625,94.4568,1.2303e-05,5.4e-07,0.0,0 STARLINK-5483,1 55643U 23021R   23207.62714481  .00000054  00000-0  12303-4 0  9990,2 55643  69.9991  77.5113 0002979 265.6250  94.4568 14.98328866 25137,6950.196,96.107,574.132,569.991,0.0
55643.0,STARLINK-5483,PAYLOAD,2023-07-26 21:27:37,14.98332124,0.0002931,69.9992,76.8378,264.9257,95.1568,5.0179e-05,5.06e-06,0.0,0 STARLINK-5483,1 55643U 23021R   23207.89418142  .00000506  00000-0  50179-4 0  9999,2 55643  69.9992  76.8378 0002931 264.9257  95.1568 14.98332124 25477,6950.186,96.107,574.088,570.014,0.0
55643.0,STARLINK-5483,PAYLOAD,2023-07-27 08:40:34,14.98327779,0.0003222,69.998,75.659,272.2669,87.8121,-3.1784e-05,-4.72e-06,0.0,0 STARLINK-5483,1 55643U 23021R   23208.36150608 -.00000472  00000-0 -31784-4 0  9997,2 55643  69.9980  75.6590 0003222 272.2669  87.8121 14.98327779 25541,6950.2,96.107,574.304,569.825,0.0
55643.0,STARLINK-5483,PAYLOAD,2023-07-27 21:29:39,14.98321208,0.0003111,69.9982,74.3126,270.9773,89.103,-8.6285e-05,-1.122e-05,0.0,0 STARLINK-5483,1 55643U 23021R   23208.89559320 -.00001122  00000-0 -86285-4 0  9998,2 55643  69.9982  74.3126 0003111 270.9773  89.1030 14.98321208 25626,6950.22,96.108,574.247,569.923,0.0
55643.0,STARLINK-5483,PAYLOAD,2023-07-28 00:41:55,14.98321305,0.0002922,69.999,73.9752,266.7655,93.317,-5.5293e-05,-7.53e-06,0.0,0 STARLINK-5483,1 55643U 23021R   23209.02911309 -.00000753  00000-0 -55293-4 0  9997,2 55643  69.9990  73.9752 0002922 266.7655  93.3170 14.98321305 25345,6950.22,96.108,574.116,570.054,0.0
55643.0,STARLINK-5483,PAYLOAD,2023-07-29 00:43:55,14.98335673,0.0003197,69.999,71.4503,271.7112,88.3681,-1.1667e-05,-2.32e-06,0.0,0 STARLINK-5483,1 55643U 23021R   23210.03050356 -.00000232  00000-0 -11667-4 0  9995,2 55643  69.9990  71.4503 0003197 271.7112  88.3681 14.98335673 25491,6950.175,96.107,574.262,569.818,0.0
55643.0,STARLINK-5483,PAYLOAD,2023-07-30 00:45:55,14.98336936,0.000321,69.9988,68.9258,270.739,89.3401,0.00014216,1.604e-05,0.0,0 STARLINK-5483,1 55643U 23021R   23211.03189690  .00001604  00000-0  14216-3 0  9994,2 55643  69.9988  68.9258 0003210 270.7390  89.3401 14.98336936 25640,6950.171,96.107,574.267,569.805,0.0
55643.0,STARLINK-5483,PAYLOAD,2023-07-30 18:23:25,14.98332633,0.0003014,69.9992,67.0739,272.0477,88.0337,-4.049e-05,-5.76e-06,0.0,0 STARLINK-5483,1 55643U 23021R   23211.76626374 -.00000576  00000-0 -40490-4 0  9992,2 55643  69.9992  67.0739 0003014 272.0477  88.0337 14.98332633 25758,6950.185,96.107,574.145,569.955,0.0
55643.0,STARLINK-5483,PAYLOAD,2023-07-31 18:25:26,14.98333895,0.0002995,69.9992,64.5489,273.6289,86.4528,-0.00010322,-1.325e-05,0.0,0 STARLINK-5483,1 55643U 23021R   23212.76766283 -.00001325  00000-0 -10322-3 0  9990,2 55643  69.9992  64.5489 0002995 273.6289  86.4528 14.98333895 25909,6950.181,96.107,574.127,569.964,0.0
55643.0,STARLINK-5483,PAYLOAD,2023-08-01 18:27:27,14.98327955,0.0003159,69.9987,62.0238,270.3479,89.7318,-2.5661e-05,-3.99e-06,0.0,0 STARLINK-5483,1 55643U 23021R   23213.76906303 -.00000399  00000-0 -25661-4 0  9993,2 55643  69.9987  62.0238 0003159 270.3479  89.7318 14.98327955 26056,6950.199,96.107,574.26,569.869,0.0
55643.0,STARLINK-5483,PAYLOAD,2023-08-02 18:29:28,14.983265,0.0003143,69.9986,59.4983,268.5941,91.4858,2.4204e-05,1.96e-06,0.0,0 STARLINK-5483,1 55643U 23021R   23214.77046319  .00000196  00000-0  24204-4 0  9992,2 55643  69.9986  59.4983 0003143 268.5941  91.4858 14.98326500 26209,6950.204,96.107,574.253,569.884,0.0
55643.0,STARLINK-5483,PAYLOAD,2023-08-03 18:31:29,14.98326168,0.0002953,69.999,56.9734,264.4637,95.6185,1.0156e-05,2.8e-07,0.0,0 STARLINK-5483,1 55643U 23021R   23215.77186398  .00000028  00000-0  10156-4 0  9990,2 55643  69.9990  56.9734 0002953 264.4637  95.6185 14.98326168 26350,6950.205,96.107,574.122,570.017,0.0
